KUIPER-00074            
1 64821U 25151F   25274.83335647 -.01051636  00000+0 -69310-1 0  9997
2 64821  51.8876 275.5438 0013791  93.7051 279.9024 15.09694805  4833
KUIPER-00075            
1 64822U 25151G   25274.26522509  .00074136  00000+0  19208-2 0  9999
2 64822  51.8779 275.7078 0007169  54.2077 305.9576 15.38343556 11836
KUIPER-00076            
1 64823U 25151H   25274.83335647  .00046935  00000+0  34267-2 0  9996
2 64823  51.8874 276.9514 0006297  84.5825  47.2642 15.03201124  5658
KUIPER-00077            
1 64824U 25151J   25274.83335647 -.00823125  00000+0 -97722-1 0  9997
2 64824  51.8967 280.6636 0006220  47.5880  69.3081 14.87045060  5619
KUIPER-00078            
1 64825U 25151K   25274.83335647 -.01848330  00000+0 -17759+0 0  9994
2 64825  51.8918 278.6482 0008516 112.2855 270.5035 14.96480625  5822
KUIPER-00079            
1 64826U 25151L   25274.83335647  .00021837  00000+0  28835-2 0  9997
2 64826  51.8994 282.7358 0012918  76.0854 285.8664 14.79891583  5841
KUIPER-00080            
1 64827U 25151M   25274.76115380  .00015760  00000+0  20864-2 0  9992
2 64827  51.8991 283.3557 0006423  94.6892 265.4804 14.80025950 11777
KUIPER-00082            
1 64828U 25151N   25274.83335647 -.00729288  00000+0 -37787-1 0  9991
2 64828  51.8860 274.6189 0006569  63.4949 123.4519 15.18175398  5598
KUIPER-00083            
1 64829U 25151P   25274.83335647 -.00799132  00000+0 -79395-1 0  9998
2 64829  51.8926 278.6348 0010489  73.4386 183.9836 14.94001763  5326
KUIPER-00084            
1 64830U 25151Q   25274.44642580 -.00003612  00000+0 -45171-3 0  9992
2 64830  51.8989 289.6881 0011496  54.3530 305.8501 14.79232835 11655
KUIPER-00085            
1 64831U 25151R   25274.83335647 -.00964174  00000+0 -52321-1 0  9991
2 64831  51.8917 274.7268 0010159  69.8576   1.1435 15.16841273  5836
KUIPER-00086            
1 64832U 25151S   25274.83335647 -.00685249  00000+0 -81388-1 0  9990
2 64832  51.8985 280.6843 0011379  76.8377 231.1090 14.86476441  3184
KUIPER-00087            
1 64833U 25151T   25274.83335647 -.00368477  00000+0 -11038-1 0  9997
2 64833  51.8786 273.2250 0008032  70.7068  66.2102 15.35424700  3712
KUIPER-00089            
1 64834U 25151U   25274.83335647 -.00511142  00000+0 -22128-1 0  9999
2 64834  51.8858 273.9982 0006760  64.6640  63.4561 15.24193730  5686
KUIPER-00090            
1 64835U 25151V   25274.24643146  .00032629  00000+0  88787-3 0  9992
2 64835  51.8779 276.3160 0008513  75.2136 284.9793 15.37196273 11829
KUIPER-00091            
1 64836U 25151W   25274.83335647 -.00558641  00000+0 -22219-1 0  9997
2 64836  51.8807 273.5097 0009488  74.8776 254.9299 15.27167221  5468
KUIPER-00092            
1 64837U 25151X   25274.83335647 -.00588191  00000+0 -36901-1 0  9994
2 64837  51.8852 275.6282 0009935  62.9096 352.1872 15.11280630  5661
KUIPER-00093            
1 64838U 25151Y   25274.83335647 -.01420782  00000+0 -11312+0 0  9994
2 64838  51.8919 277.0735 0013924  82.0845 246.4655 15.03171541  5444
KUIPER-00094            
1 64839U 25151Z   25274.83335647 -.00414534  00000+0 -18932-1 0  9999
2 64839  51.8836 274.0472 0009253  79.6119 333.4481 15.21933711  5746
KUIPER-00081            
1 65132U 25171A   25274.65208038  .00064537  00000+0  17391-2 0  9992
2 65132  51.8750 157.8838 0003761 304.2989  55.7641 15.37211991  9115
KUIPER-00088            
1 65133U 25171B   25270.16527031  .00069481  00000+0  18784-2 0  9992
2 65133  51.8754 179.5657 0004999 287.4481  72.5959 15.37073507  8424
KUIPER-00095            
1 65134U 25171C   25274.67313384  .00088752  00000+0  24320-2 0  9992
2 65134  51.8754 158.0161 0003739 341.9347  18.1506 15.36542108  9113
KUIPER-00096            
1 65135U 25171D   25274.40349228  .00069071  00000+0  18707-2 0  9995
2 65135  51.8759 159.2091 0003883 313.1281  46.9381 15.37024510  9070
KUIPER-00097            
1 65136U 25171E   25274.67423328  .00071024  00000+0  19420-2 0  9993
2 65136  51.8762 158.0240 0003908 332.8728  27.2054 15.36714969  9106
KUIPER-00098            
1 65137U 25171F   25274.71859551  .00129524  00000+0  34485-2 0  9997
2 65137  51.8742 157.5805 0005491 292.8690  67.1717 15.37219285  8467
KUIPER-00099            
1 65138U 25171G   25274.39608755  .00074104  00000+0  19925-2 0  9995
2 65138  51.8760 159.1706 0004582 303.7826  56.2724 15.37214104  9068
KUIPER-00100            
1 65139U 25171H   25274.40313676  .00076916  00000+0  20821-2 0  9993
2 65139  51.8753 159.2067 0004355 315.1728  44.8906 15.36988521  9063
KUIPER-00102            
1 65140U 25171J   25274.67411321  .00098644  00000+0  26904-2 0  9990
2 65140  51.8748 158.0197 0003613 339.7638  20.3204 15.36634266  9107
KUIPER-00103            
1 65141U 25171K   25274.83335647 -.00824491  00000+0 -39457-1 0  9990
2 65141  51.8828 158.0087 0004664 313.0415 205.2780 15.21231342  4368
KUIPER-00104            
1 65142U 25171L   25273.95027872  .00032749  00000+0  90484-3 0  9995
2 65142  51.8762 161.4315 0003220 316.0307  44.0423 15.36747880  8999
KUIPER-00105            
1 65143U 25171M   25274.83335647 -.00688125  00000+0 -24660-1 0  9994
2 65143  51.8792 157.1113 0006619 303.8502 273.2249 15.30688364  5508
KUIPER-00106            
1 65144U 25171N   25274.83335647 -.00609913  00000+0 -30277-1 0  9994
2 65144  51.8875 158.1626 0006072 295.0976  98.1754 15.19612722  5519
KUIPER-00107            
1 65145U 25171P   25274.40154895  .00076785  00000+0  20819-2 0  9997
2 65145  51.8762 159.2069 0004228 319.8344  40.2329 15.36939812  9075
KUIPER-00108            
1 65146U 25171Q   25273.96001482  .00066965  00000+0  18410-2 0  9994
2 65146  51.8764 161.4953 0004332 328.3709  31.7017 15.36572184  9008
KUIPER-00109            
1 65147U 25171R   25274.39501861  .00077241  00000+0  20732-2 0  9998
2 65147  51.8755 159.1581 0004549 305.1098  54.9462 15.37249035  9068
KUIPER-00110            
1 65148U 25171S   25274.83335647 -.01120875  00000+0 -47327-1 0  9998
2 65148  51.8786 157.5744 0007328 313.0275  29.0338 15.25807120  5499
KUIPER-00111            
1 65149U 25171T   25274.83335647 -.00630558  00000+0 -35580-1 0  9990
2 65149  51.8841 158.8870 0005316 320.7147 133.1577 15.15265157  5853
KUIPER-00112            
1 65150U 25171U   25274.67594488  .00084066  00000+0  23035-2 0  9992
2 65150  51.8759 158.0405 0004586 347.7651  12.3224 15.36567348  9105
KUIPER-00114            
1 65151U 25171V   25274.83335647 -.00985170  00000+0 -70192-1 0  9994
2 65151  51.8880 160.1353 0005267 304.4208 169.7137 15.06787745  2590
KUIPER-00115            
1 65152U 25171W   25274.83335647 -.00829447  00000+0 -32992-1 0  9995
2 65152  51.8788 157.4629 0007130 321.6823 101.5904 15.27373136  5304
KUIPER-00116            
1 65153U 25171X   25274.83335647  .00004578  00000+0  26992-3 0  9999
2 65153  51.8905 159.0433 0005700 286.3603  28.5369 15.13392062  5870
KUIPER-00118            
1 65154U 25171Y   25274.83335647 -.00883216  00000+0 -61301-1 0  9997
2 65154  51.8854 159.9836 0003578 292.2538 346.0936 15.07904959  5486
KUIPER-00119            
1 65155U 25171Z   25274.83335647 -.00435552  00000+0 -13001-1 0  9998
2 65155  51.8755 156.9988 0005280 304.5687 338.9772 15.35838828  4991
